{
  "type": "FeatureCollection",
  "features": [
    {
      "type": "Feature",
      "properties": {
        "norad_id": 42691,
        "name": "KOREASAT 7",
        "group": "active",
        "lat": NaN,
        "lon": NaN,
        "alt_km": NaN,
        "timestamp": "2025-12-01T03:08:33.297916+00:00",
        "meta": {
          "OBJECT_NAME": "KOREASAT 7",
          "OBJECT_ID": "2017-023A",
          "EPOCH": "2025-11-30T19:31:52.821984",
          "MEAN_MOTION": 1.00272403,
          "ECCENTRICITY": 0.0001783,
          "INCLINATION": 0.0345,
          "RA_OF_ASC_NODE": 29.8829,
          "ARG_OF_PERICENTER": 196.7669,
          "MEAN_ANOMALY": 252.1552,
          "EPHEMERIS_TYPE": 0,
          "CLASSIFICATION_TYPE": "U",
          "NORAD_CAT_ID": 42691,
          "ELEMENT_SET_NO": 999,
          "REV_AT_EPOCH": 3138,
          "BSTAR": 0,
          "MEAN_MOTION_DOT": -3.4e-06,
          "MEAN_MOTION_DDOT": 0
        }
      },
      "geometry": {
        "type": "Point",
        "coordinates": [
          NaN,
          NaN
        ]
      }
    },
    {
      "type": "Feature",
      "properties": {
        "norad_id": 42692,
        "name": "SGDC",
        "group": "active",
        "lat": NaN,
        "lon": NaN,
        "alt_km": NaN,
        "timestamp": "2025-12-01T03:08:33.298338+00:00",
        "meta": {
          "OBJECT_NAME": "SGDC",
          "OBJECT_ID": "2017-023B",
          "EPOCH": "2025-11-30T00:22:43.042944",
          "MEAN_MOTION": 1.00272278,
          "ECCENTRICITY": 0.0003548,
          "INCLINATION": 0.0557,
          "RA_OF_ASC_NODE": 85.6789,
          "ARG_OF_PERICENTER": 175.51,
          "MEAN_ANOMALY": 98.8012,
          "EPHEMERIS_TYPE": 0,
          "CLASSIFICATION_TYPE": "U",
          "NORAD_CAT_ID": 42692,
          "ELEMENT_SET_NO": 999,
          "REV_AT_EPOCH": 3141,
          "BSTAR": 0,
          "MEAN_MOTION_DOT": -2.28e-06,
          "MEAN_MOTION_DDOT": 0
        }
      },
      "geometry": {
        "type": "Point",
        "coordinates": [
          NaN,
          NaN
        ]
      }
    },
    {
      "type": "Feature",
      "properties": {
        "norad_id": 42695,
        "name": "GSAT-9",
        "group": "active",
        "lat": NaN,
        "lon": NaN,
        "alt_km": NaN,
        "timestamp": "2025-12-01T03:08:33.298775+00:00",
        "meta": {
          "OBJECT_NAME": "GSAT-9",
          "OBJECT_ID": "2017-024A",
          "EPOCH": "2025-11-30T19:26:30.835968",
          "MEAN_MOTION": 1.00272826,
          "ECCENTRICITY": 0.0002478,
          "INCLINATION": 0.0594,
          "RA_OF_ASC_NODE": 97.0572,
          "ARG_OF_PERICENTER": 150.9918,
          "MEAN_ANOMALY": 210.8385,
          "EPHEMERIS_TYPE": 0,
          "CLASSIFICATION_TYPE": "U",
          "NORAD_CAT_ID": 42695,
          "ELEMENT_SET_NO": 999,
          "REV_AT_EPOCH": 3131,
          "BSTAR": 0,
          "MEAN_MOTION_DOT": -2.65e-06,
          "MEAN_MOTION_DDOT": 0
        }
      },
      "geometry": {
        "type": "Point",
        "coordinates": [
          NaN,
          NaN
        ]
      }
    },
    {
      "type": "Feature",
      "properties": {
        "norad_id": 42698,
        "name": "INMARSAT 5-F4",
        "group": "active",
        "lat": NaN,
        "lon": NaN,
        "alt_km": NaN,
        "timestamp": "2025-12-01T03:08:33.299188+00:00",
        "meta": {
          "OBJECT_NAME": "INMARSAT 5-F4",
          "OBJECT_ID": "2017-025A",
          "EPOCH": "2025-11-30T19:14:54.446784",
          "MEAN_MOTION": 1.00273035,
          "ECCENTRICITY": 4.26e-05,
          "INCLINATION": 0.0174,
          "RA_OF_ASC_NODE": 327.1249,
          "ARG_OF_PERICENTER": 269.6613,
          "MEAN_ANOMALY": 178.3808,
          "EPHEMERIS_TYPE": 0,
          "CLASSIFICATION_TYPE": "U",
          "NORAD_CAT_ID": 42698,
          "ELEMENT_SET_NO": 999,
          "REV_AT_EPOCH": 3128,
          "BSTAR": 0,
          "MEAN_MOTION_DOT": 9.6e-07,
          "MEAN_MOTION_DDOT": 0
        }
      },
      "geometry": {
        "type": "Point",
        "coordinates": [
          NaN,
          NaN
        ]
      }
    },
    {
      "type": "Feature",
      "properties": {
        "norad_id": 42719,
        "name": "COSMOS 2518",
        "group": "active",
        "lat": NaN,
        "lon": NaN,
        "alt_km": NaN,
        "timestamp": "2025-12-01T03:08:33.299585+00:00",
        "meta": {
          "OBJECT_NAME": "COSMOS 2518",
          "OBJECT_ID": "2017-027A",
          "EPOCH": "2025-11-25T01:34:09.358176",
          "MEAN_MOTION": 2.00827617,
          "ECCENTRICITY": 0.70836658,
          "INCLINATION": 63.077,
          "RA_OF_ASC_NODE": 273.7149,
          "ARG_OF_PERICENTER": 273.283,
          "MEAN_ANOMALY": 15.2172,
          "EPHEMERIS_TYPE": 0,
          "CLASSIFICATION_TYPE": "U",
          "NORAD_CAT_ID": 42719,
          "ELEMENT_SET_NO": 999,
          "REV_AT_EPOCH": 6230,
          "BSTAR": -0.019069345,
          "MEAN_MOTION_DOT": 1.112e-05,
          "MEAN_MOTION_DDOT": 0
        }
      },
      "geometry": {
        "type": "Point",
        "coordinates": [
          NaN,
          NaN
        ]
      }
    },
    {
      "type": "Feature",
      "properties": {
        "norad_id": 42740,
        "name": "VIASAT-2",
        "group": "active",
        "lat": NaN,
        "lon": NaN,
        "alt_km": NaN,
        "timestamp": "2025-12-01T03:08:33.300696+00:00",
        "meta": {
          "OBJECT_NAME": "VIASAT-2",
          "OBJECT_ID": "2017-029A",
          "EPOCH": "2025-11-30T13:30:35.569152",
          "MEAN_MOTION": 1.00270367,
          "ECCENTRICITY": 5.61e-05,
          "INCLINATION": 0.0146,
          "RA_OF_ASC_NODE": 289.7364,
          "ARG_OF_PERICENTER": 179.047,
          "MEAN_ANOMALY": 93.6389,
          "EPHEMERIS_TYPE": 0,
          "CLASSIFICATION_TYPE": "U",
          "NORAD_CAT_ID": 42740,
          "ELEMENT_SET_NO": 999,
          "REV_AT_EPOCH": 3121,
          "BSTAR": 0,
          "MEAN_MOTION_DOT": -2.43e-06,
          "MEAN_MOTION_DDOT": 0
        }
      },
      "geometry": {
        "type": "Point",
        "coordinates": [
          NaN,
          NaN
        ]
      }
    },
    {
      "type": "Feature",
      "properties": {
        "norad_id": 42747,
        "name": "GSAT-19",
        "group": "active",
        "lat": NaN,
        "lon": NaN,
        "alt_km": NaN,
        "timestamp": "2025-12-01T03:08:33.301133+00:00",
        "meta": {
          "OBJECT_NAME": "GSAT-19",
          "OBJECT_ID": "2017-031A",
          "EPOCH": "2025-11-30T19:12:24.687072",
          "MEAN_MOTION": 1.00271924,
          "ECCENTRICITY": 0.0003212,
          "INCLINATION": 0.1052,
          "RA_OF_ASC_NODE": 91.7671,
          "ARG_OF_PERICENTER": 115.9939,
          "MEAN_ANOMALY": 198.1408,
          "EPHEMERIS_TYPE": 0,
          "CLASSIFICATION_TYPE": "U",
          "NORAD_CAT_ID": 42747,
          "ELEMENT_SET_NO": 999,
          "REV_AT_EPOCH": 3115,
          "BSTAR": 0,
          "MEAN_MOTION_DOT": 1.47e-06,
          "MEAN_MOTION_DDOT": 0
        }
      },
      "geometry": {
        "type": "Point",
        "coordinates": [
          NaN,
          NaN
        ]
      }
    },
    {
      "type": "Feature",
      "properties": {
        "norad_id": 42749,
        "name": "ECHOSTAR 21",
        "group": "active",
        "lat": NaN,
        "lon": NaN,
        "alt_km": NaN,
        "timestamp": "2025-12-01T03:08:33.301527+00:00",
        "meta": {
          "OBJECT_NAME": "ECHOSTAR 21",
          "OBJECT_ID": "2017-032A",
          "EPOCH": "2025-11-30T17:19:01.595136",
          "MEAN_MOTION": 1.00272626,
          "ECCENTRICITY": 0.0002559,
          "INCLINATION": 1.8452,
          "RA_OF_ASC_NODE": 342.899,
          "ARG_OF_PERICENTER": 257.8316,
          "MEAN_ANOMALY": 99.1528,
          "EPHEMERIS_TYPE": 0,
          "CLASSIFICATION_TYPE": "U",
          "NORAD_CAT_ID": 42749,
          "ELEMENT_SET_NO": 999,
          "REV_AT_EPOCH": 3110,
          "BSTAR": 0,
          "MEAN_MOTION_DOT": 8.5e-07,
          "MEAN_MOTION_DDOT": 0
        }
      },
      "geometry": {
        "type": "Point",
        "coordinates": [
          NaN,
          NaN
        ]
      }
    }
  ]
}