KOREASAT 7              
1 42691U 17023A   25334.81380581 -.00000340  00000+0  00000+0 0  9992
2 42691   0.0345  29.8829 0001783 196.7669 252.1552  1.00272403 31383
SGDC                    
1 42692U 17023B   25334.01577596 -.00000228  00000+0  00000+0 0  9994
2 42692   0.0557  85.6789 0003548 175.5100  98.8012  1.00272278 31410
GSAT-9                  
1 42695U 17024A   25334.81007912 -.00000265  00000+0  00000+0 0  9997
2 42695   0.0594  97.0572 0002478 150.9918 210.8385  1.00272826 31313
INMARSAT 5-F4           
1 42698U 17025A   25334.80201906  .00000096  00000+0  00000+0 0  9990
2 42698   0.0174 327.1249 0000426 269.6613 178.3808  1.00273035 31286
COSMOS 2518             
1 42719U 17027A   25329.06538609  .00001112  00000+0 -19069-1 0  9999
2 42719  63.0770 273.7149 7083665 273.2830  15.2172  2.00827617 62303
VIASAT-2                
1 42740U 17029A   25334.56291168 -.00000243  00000+0  00000+0 0  9999
2 42740   0.0146 289.7364 0000561 179.0470  93.6389  1.00270367 31210
GSAT-19                 
1 42747U 17031A   25334.80028573  .00000147  00000+0  00000+0 0  9996
2 42747   0.1052  91.7671 0003212 115.9939 198.1408  1.00271924 31157
ECHOSTAR 21             
1 42749U 17032A   25334.72154624  .00000085  00000+0  00000+0 0  9998
2 42749   1.8452 342.8990 0002559 257.8316  99.1528  1.00272626 31101
